IRIDIUM 921 [-]         
1 24873U 97034E   24049.53092399  .00032802  00000+0  10582-2 0  9998
2 24873  86.3881 346.9774 0005302  35.3748 324.7852 15.31991823456828
IRIDIUM 26 [-]          
1 24903U 97043A   24049.43108280  .00000808  00000+0  27047-3 0  9994
2 24903  86.3979 314.0341 0001909  84.8566 275.2849 14.36213719387141
IRIDIUM 22 [-]          
1 24907U 97043E   24049.46411527  .00000761  00000+0  25991-3 0  9996
2 24907  86.3988 317.1616 0002153  83.8647 276.2795 14.35110429387239
DUMMY MASS 1 [-]        
1 24925U 97048A   24049.61030226  .00000994  00000+0  11036-3 0  9994
2 24925  86.3387 359.2222 0009110  70.2091 290.0115 14.86056082433147
DUMMY MASS 2 [-]        
1 24926U 97048B   24049.35814728  .00001022  00000+0  11422-3 0  9995
2 24926  86.3387   0.8594 0010049  78.7353 281.5000 14.85815149432891
IRIDIUM 29 [-]          
1 24944U 97051A   24049.57451815  .00000853  00000+0  28943-3 0  9994
2 24944  86.4008 347.0427 0002391  81.0054 279.1413 14.35564583383725
IRIDIUM 33 [-]          
1 24946U 97051C   24049.56068261  .00000600  00000+0  20689-3 0  9993
2 24946  86.3923 346.3100 0006589 206.3266 153.7596 14.34264467383267
IRIDIUM 28 [-]          
1 24948U 97051E   24049.51816198  .00000878  00000+0  29264-3 0  9995
2 24948  86.4013 344.8617 0001820  91.7838 268.3568 14.36512851384246
